[{"OBJECT_NAME":"DELTA 2 R/B","OBJECT_ID":"1999-041E","EPOCH":"2026-03-03T01:41:23.444736","MEAN_MOTION":14.11813362,"ECCENTRICITY":0.05023561,"INCLINATION":51.7651,"RA_OF_ASC_NODE":327.7179,"ARG_OF_PERICENTER":328.8923,"MEAN_ANOMALY":28.3138,"EPHEMERIS_TYPE":0,"CLASSIFICATION_TYPE":"U","NORAD_CAT_ID":25876,"ELEMENT_SET_NO":999,"REV_AT_EPOCH":36209,"BSTAR":0.00031033897,"MEAN_MOTION_DOT":1.695e-5,"MEAN_MOTION_DDOT":0},{"OBJECT_NAME":"HELIOS 1B","OBJECT_ID":"1999-064A","EPOCH":"2026-03-03T17:27:58.298112","MEAN_MOTION":14.87668345,"ECCENTRICITY":0.0002502,"INCLINATION":98.1703,"RA_OF_ASC_NODE":324.7958,"ARG_OF_PERICENTER":83.0992,"MEAN_ANOMALY":277.0507,"EPHEMERIS_TYPE":0,"CLASSIFICATION_TYPE":"U","NORAD_CAT_ID":25977,"ELEMENT_SET_NO":999,"REV_AT_EPOCH":68437,"BSTAR":0.00030562,"MEAN_MOTION_DOT":2.724e-5,"MEAN_MOTION_DDOT":0},{"OBJECT_NAME":"TERRA","OBJECT_ID":"1999-068A","EPOCH":"2026-03-03T18:11:52.490688","MEAN_MOTION":14.61007359,"ECCENTRICITY":0.0002299,"INCLINATION":97.9606,"RA_OF_ASC_NODE":116.4193,"ARG_OF_PERICENTER":165.972,"MEAN_ANOMALY":262.2336,"EPHEMERIS_TYPE":0,"CLASSIFICATION_TYPE":"U","NORAD_CAT_ID":25994,"ELEMENT_SET_NO":999,"REV_AT_EPOCH":39421,"BSTAR":0.00012797,"MEAN_MOTION_DOT":5.83e-6,"MEAN_MOTION_DDOT":0},{"OBJECT_NAME":"SL-16 R/B","OBJECT_ID":"2000-006B","EPOCH":"2026-03-03T12:18:04.313952","MEAN_MOTION":14.15824433,"ECCENTRICITY":0.0017215,"INCLINATION":71.0014,"RA_OF_ASC_NODE":110.8267,"ARG_OF_PERICENTER":198.7334,"MEAN_ANOMALY":161.3158,"EPHEMERIS_TYPE":0,"CLASSIFICATION_TYPE":"U","NORAD_CAT_ID":26070,"ELEMENT_SET_NO":999,"REV_AT_EPOCH":34768,"BSTAR":0.00014259,"MEAN_MOTION_DOT":2.33e-6,"MEAN_MOTION_DDOT":0},{"OBJECT_NAME":"TITAN 4B R/B","OBJECT_ID":"2000-047B","EPOCH":"2026-03-03T19:11:13.184160","MEAN_MOTION":15.09493071,"ECCENTRICITY":0.0038002,"INCLINATION":67.9885,"RA_OF_ASC_NODE":57.0722,"ARG_OF_PERICENTER":42.3798,"MEAN_ANOMALY":318.0275,"EPHEMERIS_TYPE":0,"CLASSIFICATION_TYPE":"U","NORAD_CAT_ID":26474,"ELEMENT_SET_NO":999,"REV_AT_EPOCH":39202,"BSTAR":0.00035565,"MEAN_MOTION_DOT":5.677e-5,"MEAN_MOTION_DDOT":0},{"OBJECT_NAME":"ENVISAT","OBJECT_ID":"2002-009A","EPOCH":"2026-03-03T20:03:02.002176","MEAN_MOTION":14.39034374,"ECCENTRICITY":0.0001333,"INCLINATION":98.3719,"RA_OF_ASC_NODE":16.5725,"ARG_OF_PERICENTER":84.6244,"MEAN_ANOMALY":308.1164,"EPHEMERIS_TYPE":0,"CLASSIFICATION_TYPE":"U","NORAD_CAT_ID":27386,"ELEMENT_SET_NO":999,"REV_AT_EPOCH":25833,"BSTAR":7.0207e-5,"MEAN_MOTION_DOT":1.74e-6,"MEAN_MOTION_DDOT":0},{"OBJECT_NAME":"IDEFIX & ARIANE 42P R/B","OBJECT_ID":"2002-021B","EPOCH":"2026-03-03T18:17:52.794240","MEAN_MOTION":14.31021203,"ECCENTRICITY":0.0011238,"INCLINATION":98.5864,"RA_OF_ASC_NODE":1.4397,"ARG_OF_PERICENTER":200.2367,"MEAN_ANOMALY":159.8372,"EPHEMERIS_TYPE":0,"CLASSIFICATION_TYPE":"U","NORAD_CAT_ID":27422,"ELEMENT_SET_NO":999,"REV_AT_EPOCH":24317,"BSTAR":0.00016035,"MEAN_MOTION_DOT":3.78e-6,"MEAN_MOTION_DDOT":0},{"OBJECT_NAME":"AQUA","OBJECT_ID":"2002-022A","EPOCH":"2026-03-03T20:40:01.104096","MEAN_MOTION":14.61960134,"ECCENTRICITY":6.51e-5,"INCLINATION":98.4164,"RA_OF_ASC_NODE":30.1204,"ARG_OF_PERICENTER":58.3918,"MEAN_ANOMALY":331.584,"EPHEMERIS_TYPE":0,"CLASSIFICATION_TYPE":"U","NORAD_CAT_ID":27424,"ELEMENT_SET_NO":999,"REV_AT_EPOCH":26788,"BSTAR":0.00029557,"MEAN_MOTION_DOT":1.431e-5,"MEAN_MOTION_DDOT":0},{"OBJECT_NAME":"CZ-4B R/B","OBJECT_ID":"2002-024C","EPOCH":"2026-03-03T17:11:52.168128","MEAN_MOTION":14.14546347,"ECCENTRICITY":0.0050742,"INCLINATION":98.8852,"RA_OF_ASC_NODE":116.153,"ARG_OF_PERICENTER":40.9916,"MEAN_ANOMALY":70.6976,"EPHEMERIS_TYPE":0,"CLASSIFICATION_TYPE":"U","NORAD_CAT_ID":27432,"ELEMENT_SET_NO":999,"REV_AT_EPOCH":22839,"BSTAR":5.5781e-5,"MEAN_MOTION_DOT":6.4e-7,"MEAN_MOTION_DDOT":0},{"OBJECT_NAME":"MIDORI II (ADEOS-II)","OBJECT_ID":"2002-056A","EPOCH":"2026-03-03T18:47:56.026176","MEAN_MOTION":14.29279628,"ECCENTRICITY":0.00018,"INCLINATION":98.7759,"RA_OF_ASC_NODE":21.2205,"ARG_OF_PERICENTER":51.3292,"MEAN_ANOMALY":308.805,"EPHEMERIS_TYPE":0,"CLASSIFICATION_TYPE":"U","NORAD_CAT_ID":27597,"ELEMENT_SET_NO":999,"REV_AT_EPOCH":20945,"BSTAR":0.00017365,"MEAN_MOTION_DOT":3.96e-6,"MEAN_MOTION_DDOT":0},{"OBJECT_NAME":"H-2A R/B","OBJECT_ID":"2002-056E","EPOCH":"2026-03-03T20:05:42.403776","MEAN_MOTION":14.33756197,"ECCENTRICITY":0.0070135,"INCLINATION":98.3192,"RA_OF_ASC_NODE":23.426,"ARG_OF_PERICENTER":178.0645,"MEAN_ANOMALY":202.1846,"EPHEMERIS_TYPE":0,"CLASSIFICATION_TYPE":"U","NORAD_CAT_ID":27601,"ELEMENT_SET_NO":999,"REV_AT_EPOCH":21327,"BSTAR":0.00013822,"MEAN_MOTION_DOT":3.53e-6,"MEAN_MOTION_DDOT":0},{"OBJECT_NAME":"CZ-4B R/B","OBJECT_ID":"2003-049C","EPOCH":"2026-03-03T14:34:05.718432","MEAN_MOTION":14.55013265,"ECCENTRICITY":0.0047056,"INCLINATION":98.6873,"RA_OF_ASC_NODE":57.2734,"ARG_OF_PERICENTER":249.8633,"MEAN_ANOMALY":109.7497,"EPHEMERIS_TYPE":0,"CLASSIFICATION_TYPE":"U","NORAD_CAT_ID":28059,"ELEMENT_SET_NO":999,"REV_AT_EPOCH":18571,"BSTAR":0.0001378,"MEAN_MOTION_DOT":5.5e-6,"MEAN_MOTION_DDOT":0},{"OBJECT_NAME":"CZ-2C R/B","OBJECT_ID":"2004-012C","EPOCH":"2026-03-03T17:21:29.700288","MEAN_MOTION":15.6369341,"ECCENTRICITY":0.0013326,"INCLINATION":97.7246,"RA_OF_ASC_NODE":127.4537,"ARG_OF_PERICENTER":333.6742,"MEAN_ANOMALY":26.3837,"EPHEMERIS_TYPE":0,"CLASSIFICATION_TYPE":"U","NORAD_CAT_ID":28222,"ELEMENT_SET_NO":999,"REV_AT_EPOCH":20334,"BSTAR":0.00073196,"MEAN_MOTION_DOT":0.00068801,"MEAN_MOTION_DDOT":0},{"OBJECT_NAME":"SL-16 R/B","OBJECT_ID":"2004-021B","EPOCH":"2026-03-03T17:30:11.508768","MEAN_MOTION":14.14599617,"ECCENTRICITY":0.0003726,"INCLINATION":70.9992,"RA_OF_ASC_NODE":245.0015,"ARG_OF_PERICENTER":21.4562,"MEAN_ANOMALY":338.6716,"EPHEMERIS_TYPE":0,"CLASSIFICATION_TYPE":"U","NORAD_CAT_ID":28353,"ELEMENT_SET_NO":999,"REV_AT_EPOCH":12199,"BSTAR":-4.384e-5,"MEAN_MOTION_DOT":-1.32e-6,"MEAN_MOTION_DDOT":0},{"OBJECT_NAME":"CZ-4B R/B","OBJECT_ID":"2004-035C","EPOCH":"2026-03-03T15:02:17.422656","MEAN_MOTION":15.28932257,"ECCENTRICITY":0.0031634,"INCLINATION":97.3505,"RA_OF_ASC_NODE":96.9417,"ARG_OF_PERICENTER":353.5115,"MEAN_ANOMALY":6.5711,"EPHEMERIS_TYPE":0,"CLASSIFICATION_TYPE":"U","NORAD_CAT_ID":28415,"ELEMENT_SET_NO":999,"REV_AT_EPOCH":17898,"BSTAR":0.00038586,"MEAN_MOTION_DOT":0.00010935,"MEAN_MOTION_DDOT":0},{"OBJECT_NAME":"CZ-2C R/B","OBJECT_ID":"2004-046B","EPOCH":"2026-03-03T17:39:34.481664","MEAN_MOTION":14.26989818,"ECCENTRICITY":0.0139523,"INCLINATION":98.1987,"RA_OF_ASC_NODE":338.0901,"ARG_OF_PERICENTER":172.0058,"MEAN_ANOMALY":188.3394,"EPHEMERIS_TYPE":0,"CLASSIFICATION_TYPE":"U","NORAD_CAT_ID":28480,"ELEMENT_SET_NO":999,"REV_AT_EPOCH":10765,"BSTAR":7.2528e-5,"MEAN_MOTION_DOT":1.55e-6,"MEAN_MOTION_DDOT":0},{"OBJECT_NAME":"ARIANE 5 R/B","OBJECT_ID":"2004-049H","EPOCH":"2026-03-03T10:26:03.749568","MEAN_MOTION":14.85252013,"ECCENTRICITY":0.0084395,"INCLINATION":98.2616,"RA_OF_ASC_NODE":230.658,"ARG_OF_PERICENTER":12.1868,"MEAN_ANOMALY":348.1361,"EPHEMERIS_TYPE":0,"CLASSIFICATION_TYPE":"U","NORAD_CAT_ID":28499,"ELEMENT_SET_NO":999,"REV_AT_EPOCH":14486,"BSTAR":0.00012045707,"MEAN_MOTION_DOT":1.037e-5,"MEAN_MOTION_DDOT":0}]
