DELTA 2 R/B             
1 25876U 99041E   26062.07041024  .00001695  00000+0  31034-3 0  9999
2 25876  51.7651 327.7179 0502356 328.8923  28.3138 14.11813362362092
HELIOS 1B               
1 25977U 99064A   26062.72775808  .00002724  00000+0  30562-3 0  9991
2 25977  98.1703 324.7958 0002502  83.0992 277.0507 14.87668345684376
TERRA                   
1 25994U 99068A   26062.75824642  .00000583  00000+0  12797-3 0  9999
2 25994  97.9606 116.4193 0002299 165.9720 262.2336 14.61007359394214
SL-16 R/B               
1 26070U 00006B   26062.51254993  .00000233  00000+0  14259-3 0  9996
2 26070  71.0014 110.8267 0017215 198.7334 161.3158 14.15824433347684
TITAN 4B R/B            
1 26474U 00047B   26062.79945815  .00005677  00000+0  35565-3 0  9999
2 26474  67.9885  57.0722 0038002  42.3798 318.0275 15.09493071392028
ENVISAT                 
1 27386U 02009A   26062.83543984  .00000174  00000+0  70207-4 0  9998
2 27386  98.3719  16.5725 0001333  84.6244 308.1164 14.39034374258331
IDEFIX & ARIANE 42P R/B 
1 27422U 02021B   26062.76241660  .00000378  00000+0  16035-3 0  9995
2 27422  98.5864   1.4397 0011238 200.2367 159.8372 14.31021203243177
AQUA                    
1 27424U 02022A   26062.86112389  .00001431  00000+0  29557-3 0  9998
2 27424  98.4164  30.1204 0000651  58.3918 331.5840 14.61960134267889
CZ-4B R/B               
1 27432U 02024C   26062.71657602  .00000064  00000+0  55781-4 0  9995
2 27432  98.8852 116.1530 0050742  40.9916  70.6976 14.14546347228392
MIDORI II (ADEOS-II)    
1 27597U 02056A   26062.78328734  .00000396  00000+0  17365-3 0  9993
2 27597  98.7759  21.2205 0001800  51.3292 308.8050 14.29279628209454
H-2A R/B                
1 27601U 02056E   26062.83729634  .00000353  00000+0  13822-3 0  9996
2 27601  98.3192  23.4260 0070135 178.0645 202.1846 14.33756197213278
CZ-4B R/B               
1 28059U 03049C   26062.60701063  .00000550  00000+0  13780-3 0  9990
2 28059  98.6873  57.2734 0047056 249.8633 109.7497 14.55013265185713
CZ-2C R/B               
1 28222U 04012C   26062.72326042  .00068801  00000+0  73196-3 0  9996
2 28222  97.7246 127.4537 0013326 333.6742  26.3837 15.63693410203344
SL-16 R/B               
1 28353U 04021B   26062.72929987 -.00000132  00000+0 -43840-4 0  9997
2 28353  70.9992 245.0015 0003726  21.4562 338.6716 14.14599617121997
CZ-4B R/B               
1 28415U 04035C   26062.62659054  .00010935  00000+0  38586-3 0  9995
2 28415  97.3505  96.9417 0031634 353.5115   6.5711 15.28932257178984
CZ-2C R/B               
1 28480U 04046B   26062.73581576  .00000155  00000+0  72528-4 0  9992
2 28480  98.1987 338.0901 0139523 172.0058 188.3394 14.26989818107657
ARIANE 5 R/B            
1 28499U 04049H   26062.43476562  .00001037  00000+0  12046-3 0  9998
2 28499  98.2616 230.6580 0084395  12.1868 348.1361 14.85252013144865
